NAVSTAR 48 (USA 151)    
1 26407U 00040A   26159.40998556  .00000052  00000+0  00000+0 0  9997
2 26407  54.8525 215.5111 0121154 302.4225 123.9688  2.00557616189779
NAVSTAR 51 (USA 166)    
1 27663U 03005A   26158.67534595  .00000046  00000+0  00000+0 0  9996
2 27663  54.8836 215.3470 0147938  53.0681 338.7742  2.00561087171122
NAVSTAR 54 (USA 177)    
1 28190U 04009A   26159.45943867 -.00000039  00000+0  00000+0 0  9993
2 28190  54.8373 276.0401 0115757 172.6865 218.6401  2.00555014162770
NAVSTAR 56 (USA 180)    
1 28474U 04045A   26158.35392840 -.00000059  00000+0  00000+0 0  9997
2 28474  55.1426 325.2921 0169828 316.1566  61.9153  2.00555496158236
NAVSTAR 57 (USA 183)    
1 28874U 05038A   26159.35693970 -.00000037  00000+0  00000+0 0  9999
2 28874  54.8855 273.5341 0127807 296.0902  49.5226  2.00566282151651
INMARSAT 4-F2           
1 28899U 05044A   26159.01548304 -.00000247  00000+0  00000+0 0  9999
2 28899   5.0824  43.7089 0003051  32.7373 329.0274  1.00271495 75437
NAVSTAR 58 (USA 190)    
1 29486U 06042A   26157.27303984  .00000092  00000+0  00000+0 0  9997
2 29486  54.7093 151.7723 0106366  54.1524 125.0487  2.00570539144173
NAVSTAR 59 (USA 192)    
1 29601U 06052A   26158.94516131  .00000050  00000+0  00000+0 0  9996
2 29601  54.9359 214.3727 0085341  90.7744 270.2803  2.00557721143226
NAVSTAR 60 (USA 196)    
1 32260U 07047A   26159.25005001 -.00000013  00000+0  00000+0 0  9990
2 32260  54.0887  80.4341 0166411  87.2037 274.7013  2.00555680136637
COSMOS 2433 [GLONASS-M] 
1 32275U 07052A   26158.99973646 -.00000028  00000+0  00000+0 0  9997
2 32275  65.5821 316.2429 0002175 191.1686 168.8259  2.13104383144869
COSMOS 2432 [GLONASS-M] 
1 32276U 07052B   26159.06781030 -.00000028  00000+0  00000+0 0  9991
2 32276  65.5986 316.3679 0007880 333.8605  22.2735  2.13103443144884
NAVSTAR 61 (USA 199)    
1 32384U 07062A   26158.55549145 -.00000036  00000+0  00000+0 0  9993
2 32384  55.0397 274.5401 0035561 165.0044 180.7176  2.00559526135311
COSMOS 2434 [GLONASS-M] 
1 32393U 07065A   26158.24705932  .00000085  00000+0  00000+0 0  9993
2 32393  64.3173 192.2510 0001095 341.2525  51.1973  2.13101527143560
COSMOS 2436 [GLONASS-M] 
1 32395U 07065C   26159.44329743  .00000098  00000+0  00000+0 0  9994
2 32395  64.3259 192.2829 0017180 354.5788   7.9365  2.13100356143541
NAVSTAR 62 (USA 201)    
1 32711U 08012A   26159.16217670  .00000108  00000+0  00000+0 0  9995
2 32711  54.4962 150.2852 0211085 247.7307 110.0246  2.00572204133571
NAVSTAR 64 (USA 206)    
1 35752U 09043A   26159.30365117 -.00000067  00000+0  00000+0 0  9999
2 35752  56.2048  27.8007 0053714  82.8286  29.7907  2.00554745123188
COSMOS 2456 [GLONASS-M] 
1 36111U 09070A   26156.36211172 -.00000011  00000+0  00000+0 0  9992
2 36111  65.0050  71.3748 0005034 326.0196 218.4437  2.13103930128179
COSMOS 2457 [GLONASS-M] 
1 36112U 09070B   26159.42837878 -.00000019  00000+0  00000+0 0  9998
2 36112  64.9920  71.1146 0002449 127.6857  16.6154  2.13101383128242
COSMOS 2460 [GLONASS-M] 
1 36402U 10007C   26156.93373906 -.00000030  00000+0  00000+0 0  9995
2 36402  65.4275 314.8474 0002122 103.7485 288.7249  2.13101712126492
NAVSTAR 65 (USA 213)    
1 36585U 10022A   26157.59368922  .00000048  00000+0  00000+0 0  9997
2 36585  54.2711 208.9889 0126253  66.1149  10.1649  2.00561961117380
BEIDOU-2 IGSO-1         
1 36828U 10036A   26158.70202793 -.00000045  00000+0  00000+0 0  9997
2 36828  54.3007 163.0453 0059223 225.1119 228.3319  1.00275414 58007
BEIDOU-2 G4             
1 37210U 10057A   26159.51781023 -.00000096  00000+0  00000+0 0  9990
2 37210   3.6246  68.9975 0004839 200.6206 333.7174  1.00272006 57200
BEIDOU-2 IGSO-2         
1 37256U 10068A   26157.74761939 -.00000212  00000+0  00000+0 0  9999
2 37256  47.5684 271.9632 0054983 212.5902 147.2585  1.00287050 56690
BEIDOU-2 IGSO-3         
1 37384U 11013A   26158.96895576 -.00000187  00000+0  00000+0 0  9993
2 37384  62.3942  40.2405 0034533 184.6500 128.2544  1.00270210 55560
GSAT-8                  
1 37605U 11022A   26159.49720476  .00000101  00000+0  00000+0 0  9999
2 37605   2.1076  81.9293 0002238 210.6897 198.3315  1.00271024 53138
BEIDOU-2 IGSO-4         
1 37763U 11038A   26157.61745852  .00000066  00000+0  00000+0 0  9998
2 37763  54.5986 165.7673 0159071 231.3681 173.1210  1.00287300 54541
GSAT0101 (GALILEO-PFM)  
1 37846U 11060A   26157.28990272 -.00000066  00000+0  00000+0 0  9997
2 37846  56.9979 342.0567 0003295  48.4785 311.5631  1.70475774 90930
GSAT0102 (GALILEO-FM2)  
1 37847U 11060B   26158.40220003 -.00000063  00000+0  00000+0 0  9998
2 37847  57.0009 342.0270 0003434  13.7700 354.5257  1.70476015 90968
COSMOS 2476 [GLONASS-M] 
1 37867U 11064A   26158.36302253 -.00000011  00000+0  00000+0 0  9990
2 37867  65.2648  73.2028 0023091 239.6304 308.2052  2.13104067113557
COSMOS 2477 [GLONASS-M] 
1 37868U 11064B   26159.05508637 -.00000014  00000+0  00000+0 0  9995
2 37868  65.2718  73.2586 0020074 240.9368 298.1963  2.13103242113561
COSMOS 2475 [GLONASS-M] 
1 37869U 11064C   26156.29294414 -.00000008  00000+0  00000+0 0  9997
2 37869  65.2772  73.3732 0025997 253.8433 281.4335  2.13102052113512
